0 ATLAS D DEB
1 02337U 66063E   13281.45006073  .00000328  00000-0  87089-4 0  1942
2 02337 144.2338 255.6670 0005699 162.5882 351.1365 13.71467548365862
0 ATLAS D DEB
1 02337U 66063E   13283.48759222  .00000381  00000-0  14522-3 0  1959
2 02337 144.2337 265.6034 0005815 176.0822 331.5430 13.71468698366144
0 ATLAS D DEB
1 02337U 66063E   13285.52905368  .00000362  00000-0  12444-3 0  1961
2 02337 144.2335 275.5593 0005954 189.2383 331.7208 13.71468918366425
0 ATLAS D DEB
1 02337U 66063E   13287.77481279  .00000330  00000-0  90385-4 0  1977
2 02337 144.2333 286.5116 0006157 202.8857 261.4909 13.71468957366734
0 ATLAS D DEB
1 02337U 66063E   13290.61994259  .00000336  00000-0  96813-4 0  1980
2 02337 144.2332 300.3871 0006210 220.7238 270.4679 13.71469787367128
0 ATLAS D DEB
1 02337U 66063E   13292.86333995  .00000382  00000-0  14712-3 0  1992
2 02337 144.2332 311.3277 0006254 234.5193 188.4280 13.71470636367436
0 ATLAS D DEB
1 02337U 66063E   13295.03969182  .00000342  00000-0  10257-3 0  2006
2 02337 144.2332 321.9410 0006294 247.5506 135.6668 13.71470789367734
